STARLINK-1267           
1 45384U 20019AA  26164.88234691  .00050291  00000+0  48637-3 0  9993
2 45384  53.0435  19.5479 0005866 132.9043 227.2465 15.65929119345286
STARLINK-1272           
1 45386U 20019AC  26164.82224687  .00064209  00000+0  51267-3 0  9990
2 45386  53.0395 358.4183 0005953 112.7160 247.4487 15.70523131345573
STARLINK-1274           
1 45387U 20019AD  26164.81497332  .00094456  00000+0  10150-2 0  9991
2 45387  53.0203 357.9934 0006672 168.4910 191.6257 15.62993043345579
STARLINK-1280           
1 45388U 20019AE  26165.26263516  .00126279  00000+0  55894-3 0  9991
2 45388  53.0357   3.2033 0000477 299.8137  60.2838 15.83573902345531
STARLINK-1283           
1 45389U 20019AF  26164.76905004  .00067191  00000+0  49708-3 0  9995
2 45389  53.0402 357.6868 0002185 169.4234 190.6830 15.72338989345580
STARLINK-1284           
1 45390U 20019AG  26165.30212161  .00061576  00000+0  48810-3 0  9997
2 45390  53.0403  19.0072 0003696  57.2858 302.8515 15.70727016345323
STARLINK-1297           
1 45395U 20019AM  26165.51480735  .00052548  00000+0  44766-3 0  9994
2 45395  53.0415  17.0713 0005344  74.2183 285.9422 15.69043860344551
STARLINK-1307           
1 45397U 20019AP  26164.91290588  .00038410  00000+0  52419-3 0  9990
2 45397  53.0526  26.4708 0001687 131.5552 228.5604 15.57132405345015
STARLINK-1255           
1 45399U 20019AR  26165.23580142  .00049654  00000+0  47137-3 0  9999
2 45399  53.0346 352.3301 0003979 134.1623 225.9719 15.66409439345507
STARLINK-1260           
1 45404U 20019AW  26165.58335647  .00086398  00000+0  22168-2 0  9994
2 45404  53.1560  36.5503 0005236 115.0391 263.8866 15.38611261  5779
STARLINK-1263           
1 45405U 20019AX  26165.36782001  .00042376  00000+0  12118-2 0  9993
2 45405  53.1586  38.9582 0003674 131.0382 229.0939 15.35580287344796
STARLINK-1265           
1 45406U 20019AY  26165.37607997  .00050725  00000+0  13004-2 0  9997
2 45406  53.1567  37.5000 0003857 102.0865 258.0572 15.38885245344816
STARLINK-1278           
1 45408U 20019BA  26164.90069617  .00058092  00000+0  47680-3 0  9991
2 45408  53.0405  18.9943 0005370 100.5233 259.6388 15.69904277345017
STARLINK-1296           
1 45412U 20019BE  26164.96034177  .00052909  00000+0  13488-2 0  9994
2 45412  53.1557  39.1403 0004582  97.6227 262.5298 15.39034120344751
STARLINK-1309           
1 45414U 20019BG  26164.86101287  .00054352  00000+0  46598-3 0  9995
2 45414  53.0606  13.1897 0005294  69.1463 291.0120 15.68875739345071
STARLINK-1316           
1 45415U 20019BH  26165.58335647  .00081658  00000+0  20425-2 0  9994
2 45415  53.1558  36.1240 0005153 106.7260 285.3755 15.39417736  5725
STARLINK-1286           
1 45417U 20019BK  26164.87099781  .00056292  00000+0  56880-3 0  9994
2 45417  53.0463  24.7959 0001659 239.6042 120.4808 15.64797100345204
STARLINK-1308           
1 45419U 20019BM  26164.95498396  .00050320  00000+0  47701-3 0  9998
2 45419  53.0467  43.7159 0007019  66.9399 293.2355 15.66419862344691
ONEWEB-0066             
1 45424U 20020A   26165.32369919 -.00000524  00000+0 -15147-2 0  9997
2 45424  87.8889  21.6414 0001723  80.5092 279.6231 13.11416121302303
ONEWEB-0067             
1 45425U 20020B   26165.51421235  .00000572  00000+0  15768-2 0  9999
2 45425  87.8910  21.5247 0001959  81.8513 278.2837 13.11423326302385
ONEWEB-0080             
1 45426U 20020C   26165.51375385  .00000578  00000+0  15950-2 0  9993
2 45426  87.8900  21.5995 0001580  92.4672 267.6636 13.11417183302359
ONEWEB-0090             
1 45427U 20020D   26165.31366867 -.00000383  00000+0 -11151-2 0  9992
2 45427  87.8897  21.6435 0001772  87.2029 272.9302 13.11414869302296
ONEWEB-0061             
1 45428U 20020E   26165.34561396  .00000243  00000+0  64954-3 0  9993
2 45428  87.8896  21.6223 0001762  84.5546 275.5783 13.11419421302251
ONEWEB-0081             
1 45429U 20020F   26165.09820132 -.00000582  00000+0 -16780-2 0  9993
2 45429  87.8895  21.6824 0001850  78.7889 281.3447 13.11417521302331
ONEWEB-0069             
1 45430U 20020G   26165.10003155 -.00000326  00000+0 -95681-3 0  9999
2 45430  87.8894  21.6847 0001832  82.3139 277.8196 13.11416688302262
ONEWEB-0031             
1 45431U 20020H   26165.51700491  .00000594  00000+0  16397-2 0  9993
2 45431  87.8887  21.6066 0001663  89.9063 270.2255 13.11416973302304
ONEWEB-0027             
1 45432U 20020J   26165.58335647  .00029007  00000+0  74672-1 0  9997
2 45432  87.9138   6.3903 0001707 111.2824 154.2033 13.17437110  5181
ONEWEB-0064             
1 45433U 20020K   26165.51531233  .00000547  00000+0  15069-2 0  9994
2 45433  87.8890  21.5987 0001779  90.8151 269.3180 13.11415432302336
ONEWEB-0018             
1 45434U 20020L   26165.31849497 -.00002827  00000+0 -80121-2 0  9993
2 45434  87.8890  21.6370 0001519  76.9526 283.1772 13.11431481302251
ONEWEB-0083             
1 45435U 20020M   26165.30859365 -.00000219  00000+0 -65323-3 0  9999
2 45435  87.8895  21.6327 0001744  86.3289 273.8038 13.11415436302297
