OBJECT_NAME,OBJECT_ID,EPOCH,MEAN_MOTION,ECCENTRICITY,INCLINATION,RA_OF_ASC_NODE,ARG_OF_PERICENTER,MEAN_ANOMALY,EPHEMERIS_TYPE,CLASSIFICATION_TYPE,NORAD_CAT_ID,ELEMENT_SET_NO,REV_AT_EPOCH,BSTAR,MEAN_MOTION_DOT,MEAN_MOTION_DDOT
STARLINK-1267,2020-019AA,2026-06-13T21:10:34.773024,15.65929119,.00058667,53.0435,19.5479,132.9043,227.2465,0,U,45384,999,34528,.48637399E-3,.50291E-3,0
STARLINK-1272,2020-019AC,2026-06-13T19:44:02.129568,15.70523131,.0005953,53.0395,358.4183,112.7160,247.4487,0,U,45386,999,34557,.51267359E-3,.64209E-3,0
STARLINK-1274,2020-019AD,2026-06-13T19:33:33.694848,15.62993043,.00066721,53.0203,357.9934,168.4910,191.6257,0,U,45387,999,34557,.10149851E-2,.94456E-3,0
STARLINK-1280,2020-019AE,2026-06-14T06:18:11.677824,15.83573902,.0000477,53.0357,3.2033,299.8137,60.2838,0,U,45388,999,34553,.55894E-3,.126279E-2,0
STARLINK-1283,2020-019AF,2026-06-13T18:27:25.923456,15.72338989,.00021851,53.0402,357.6868,169.4234,190.6830,0,U,45389,999,34558,.49707938E-3,.67191E-3,0
STARLINK-1284,2020-019AG,2026-06-14T07:15:03.307104,15.70727016,.0003696,53.0403,19.0072,57.2858,302.8515,0,U,45390,999,34532,.4881E-3,.61576E-3,0
STARLINK-1297,2020-019AM,2026-06-14T12:21:19.355040,15.69043860,.0005344,53.0415,17.0713,74.2183,285.9422,0,U,45395,999,34455,.44766E-3,.52548E-3,0
STARLINK-1307,2020-019AP,2026-06-13T21:54:35.068032,15.57132405,.0001687,53.0526,26.4708,131.5552,228.5604,0,U,45397,999,34501,.52419E-3,.3841E-3,0
STARLINK-1255,2020-019AR,2026-06-14T05:39:33.242688,15.66409439,.0003979,53.0346,352.3301,134.1623,225.9719,0,U,45399,999,34550,.47137E-3,.49654E-3,0
STARLINK-1260,2020-019AW,2026-06-14T14:00:01.999008,15.38611261,.0005236,53.1560,36.5503,115.0391,263.8866,0,U,45404,999,577,.22168E-2,.86398E-3,0
STARLINK-1263,2020-019AX,2026-06-14T08:49:39.648864,15.35580287,.0003674,53.1586,38.9582,131.0382,229.0939,0,U,45405,999,34479,.12118E-2,.42376E-3,0
STARLINK-1265,2020-019AY,2026-06-14T09:01:33.309408,15.38885245,.0003857,53.1567,37.5000,102.0865,258.0572,0,U,45406,999,34481,.13004E-2,.50725E-3,0
STARLINK-1278,2020-019BA,2026-06-13T21:37:00.149088,15.69904277,.000537,53.0405,18.9943,100.5233,259.6388,0,U,45408,999,34501,.4768E-3,.58092E-3,0
STARLINK-1296,2020-019BE,2026-06-13T23:02:53.528928,15.39034120,.00045827,53.1557,39.1403,97.6227,262.5298,0,U,45412,999,34475,.13488298E-2,.52909E-3,0
STARLINK-1309,2020-019BG,2026-06-13T20:39:51.511968,15.68875739,.00052941,53.0606,13.1897,69.1463,291.0120,0,U,45414,999,34507,.46597537E-3,.54352E-3,0
STARLINK-1316,2020-019BH,2026-06-14T14:00:01.999008,15.39417736,.0005153,53.1558,36.1240,106.7260,285.3755,0,U,45415,999,572,.20425E-2,.81658E-3,0
STARLINK-1286,2020-019BK,2026-06-13T20:54:14.210784,15.64797100,.00016598,53.0463,24.7959,239.6042,120.4808,0,U,45417,999,34520,.56880293E-3,.56292E-3,0
STARLINK-1308,2020-019BM,2026-06-13T22:55:10.614144,15.66419862,.0007019,53.0467,43.7159,66.9399,293.2355,0,U,45419,999,34469,.47701E-3,.5032E-3,0
ONEWEB-0066,2020-020A,2026-06-14T07:46:07.610016,13.11416121,.0001723,87.8889,21.6414,80.5092,279.6231,0,U,45424,999,30230,-.15147E-2,-.524E-5,0
ONEWEB-0067,2020-020B,2026-06-14T12:20:27.947040,13.11423326,.0001959,87.8910,21.5247,81.8513,278.2837,0,U,45425,999,30238,.15768E-2,.572E-5,0
ONEWEB-0080,2020-020C,2026-06-14T12:19:48.332640,13.11417183,.000158,87.8900,21.5995,92.4672,267.6636,0,U,45426,999,30235,.1595E-2,.578E-5,0
ONEWEB-0090,2020-020D,2026-06-14T07:31:40.973088,13.11414869,.0001772,87.8897,21.6435,87.2029,272.9302,0,U,45427,999,30229,-.11151E-2,-.383E-5,0
ONEWEB-0061,2020-020E,2026-06-14T08:17:41.046144,13.11419421,.0001762,87.8896,21.6223,84.5546,275.5783,0,U,45428,999,30225,.64954E-3,.243E-5,0
ONEWEB-0081,2020-020F,2026-06-14T02:21:24.594048,13.11417521,.00018509,87.8895,21.6824,78.7889,281.3447,0,U,45429,999,30233,-.1678035E-2,-.582E-5,0
ONEWEB-0069,2020-020G,2026-06-14T02:24:02.725920,13.11416688,.0001832,87.8894,21.6847,82.3139,277.8196,0,U,45430,999,30226,-.95681172E-3,-.326E-5,0
ONEWEB-0031,2020-020H,2026-06-14T12:24:29.224224,13.11416973,.0001663,87.8887,21.6066,89.9063,270.2255,0,U,45431,999,30230,.16397E-2,.594E-5,0
ONEWEB-0027,2020-020J,2026-06-14T14:00:01.999008,13.17437110,.0001707,87.9138,6.3903,111.2824,154.2033,0,U,45432,999,518,.74672E-1,.29007E-3,0
ONEWEB-0064,2020-020K,2026-06-14T12:22:02.985312,13.11415432,.0001779,87.8890,21.5987,90.8151,269.3180,0,U,45433,999,30233,.15069E-2,.547E-5,0
ONEWEB-0018,2020-020L,2026-06-14T07:38:37.965408,13.11431481,.0001519,87.8890,21.6370,76.9526,283.1772,0,U,45434,999,30225,-.80121E-2,-.2827E-4,0
ONEWEB-0083,2020-020M,2026-06-14T07:24:22.491360,13.11415436,.0001744,87.8895,21.6327,86.3289,273.8038,0,U,45435,999,30229,-.65323E-3,-.219E-5,0
